OBJECT_NAME,OBJECT_ID,EPOCH,MEAN_MOTION,ECCENTRICITY,INCLINATION,RA_OF_ASC_NODE,ARG_OF_PERICENTER,MEAN_ANOMALY,EPHEMERIS_TYPE,CLASSIFICATION_TYPE,NORAD_CAT_ID,ELEMENT_SET_NO,REV_AT_EPOCH,BSTAR,MEAN_MOTION_DOT,MEAN_MOTION_DDOT
ONEWEB-0395,2021-132G,2026-06-05T08:11:05.931168,13.11416107,.00019029,87.8896,23.4253,90.9203,269.2143,0,U,50475,999,21416,-.95330576E-3,-.325E-5,0
ONEWEB-0396,2021-132H,2026-06-05T20:40:44.744736,13.18684494,.0001961,87.9168,337.7083,88.1820,271.9537,0,U,50476,999,22014,-.10272E-2,-.392E-5,0
ONEWEB-0397,2021-132J,2026-06-05T11:56:17.494080,13.18684483,.00019293,87.9166,337.7810,84.7880,275.3472,0,U,50477,999,22007,-.32155341E-3,-.114E-5,0
ONEWEB-0398,2021-132K,2026-06-05T09:14:35.035872,13.11418834,.00017745,87.8903,23.4065,94.0979,266.0352,0,U,50478,999,21406,.16292649E-2,.59E-5,0
ONEWEB-0399,2021-132L,2026-06-05T08:55:03.064800,13.11418902,.00022921,87.8906,23.4200,79.2274,280.9112,0,U,50479,999,21405,.28419172E-3,.113E-5,0
ONEWEB-0400,2021-132M,2026-06-05T11:24:43.962048,13.18684526,.00017885,87.9166,337.7749,97.6141,262.5194,0,U,50480,999,22006,-.29666452E-3,-.104E-5,0
ONEWEB-0401,2021-132N,2026-06-05T12:30:16.963488,13.18687014,.00017581,87.9168,337.7631,82.4036,277.7296,0,U,50481,999,22007,-.26435868E-3,-.91E-6,0
ONEWEB-0402,2021-132P,2026-06-05T20:43:11.756928,13.18688709,.0001731,87.9168,337.6847,74.1307,286.0016,0,U,50482,999,22014,.79241E-4,.44E-6,0
ONEWEB-0403,2021-132Q,2026-06-05T12:13:17.038272,13.18687118,.00020204,87.9165,337.7787,91.9434,268.1929,0,U,50483,999,22005,-.26648032E-3,-.92E-6,0
ONEWEB-0404,2021-132R,2026-06-05T08:28:11.145792,13.11416893,.0002111,87.8898,23.4227,86.4533,273.6836,0,U,50484,999,21414,-.14539373E-2,-.503E-5,0
ONEWEB-0405,2021-132S,2026-06-05T12:32:44.151936,13.18686215,.00017579,87.9170,337.7606,105.4493,254.6834,0,U,50485,999,22045,-.19964973E-4,.5E-7,0
ONEWEB-0406,2021-132T,2026-06-05T12:20:34.399392,13.18684686,.00024111,87.9159,337.7794,91.1095,269.0313,0,U,50486,999,22008,.48130976E-4,.32E-6,0
ONEWEB-0407,2021-132U,2026-06-05T12:10:52.187808,13.18686513,.00015832,87.9167,337.7723,88.8095,271.3218,0,U,50487,999,22002,-.10423187E-3,-.28E-6,0
ONEWEB-0409,2021-132V,2026-06-05T08:25:44.351328,13.11417926,.00020268,87.8908,23.4090,88.4631,271.6729,0,U,50488,999,21403,-.12499447E-2,-.43E-5,0
ONEWEB-0412,2021-132W,2026-06-05T11:53:51.418464,13.18687498,.00018225,87.9167,337.7837,81.7649,278.3690,0,U,50489,999,22011,-.18773302E-3,-.61E-6,0
ONEWEB-0413,2021-132X,2026-06-05T12:01:08.245632,13.18680216,.00015673,87.9156,337.7821,82.2750,277.8560,0,U,50490,999,22005,-.15279707E-3,-.47E-6,0
ONEWEB-0414,2021-132Y,2026-06-05T11:39:17.961120,13.18684778,.00019187,87.9167,337.7659,85.9780,274.1571,0,U,50491,999,22008,.82549455E-4,.45E-6,0
ONEWEB-0417,2021-132Z,2026-06-05T11:51:26.259552,13.18684979,.00020392,87.9160,337.7847,90.7909,269.3457,0,U,50492,999,22006,.89776546E-4,.48E-6,0
ONEWEB-0418,2021-132AA,2026-06-05T12:05:49.331616,13.18685855,.00021076,87.9167,337.7811,92.1023,268.0351,0,U,50493,999,22012,-.18310823E-3,-.59E-6,0
ONEWEB-0419,2021-132AB,2026-06-05T12:32:20.409216,13.18665592,.00019861,87.9166,337.7771,97.4071,262.7287,0,U,50494,999,22004,.96512057E-4,.51E-6,0
ONEWEB-0420,2021-132AC,2026-06-05T11:41:43.597824,13.18684807,.00016193,87.9157,337.7882,91.9145,268.2172,0,U,50495,999,22003,-.32432673E-4,0,0
ONEWEB-0421,2021-132AD,2026-06-05T20:38:19.120128,13.18689930,.0002052,87.9161,337.7113,80.1246,280.0118,0,U,50496,999,22012,-.27598E-2,-.1075E-4,0
ONEWEB-0424,2021-132AE,2026-06-05T12:25:25.823136,13.18687487,.00019372,87.9166,337.7769,100.1723,259.9628,0,U,50497,999,22010,-.18906126E-3,-.62E-6,0
ONEWEB-0426,2021-132AF,2026-06-05T11:25:57.976608,13.18687980,.0002444,87.9167,337.7761,83.2460,276.8950,0,U,50498,999,22004,-.19092803E-3,-.62E-6,0
ONEWEB-0427,2021-132AG,2026-06-05T12:23:00.405888,13.18652212,.00023283,87.9166,337.7568,97.1415,262.9982,0,U,50499,999,22007,.17236814E-1,.681E-4,0
ONEWEB-0429,2021-132AH,2026-06-05T12:03:34.940736,13.18685056,.00016907,87.9159,337.7852,90.4903,269.6423,0,U,50500,999,22004,-.18328488E-3,-.59E-6,0
ONEWEB-0430,2021-132AJ,2026-06-05T11:46:35.141664,13.18685409,.00016528,87.9158,337.7856,98.4127,261.7192,0,U,50501,999,22008,-.16990206E-3,-.54E-6,0
ONEWEB-0432,2021-132AK,2026-06-05T10:44:36.747456,13.18682886,.00018216,87.9165,337.7664,111.3958,248.7369,0,U,50502,999,22003,-.109251E-4,.9E-7,0
ONEWEB-0440,2021-132AL,2026-06-05T12:15:42.844320,13.18684821,.00017443,87.9167,337.7766,79.9660,280.1669,0,U,50503,999,22003,.10552466E-3,.55E-6,0
ONEWEB-0450,2021-132AM,2026-06-05T12:06:13.006080,13.18687294,.00016306,87.9156,337.7847,91.9867,268.1452,0,U,50504,999,22006,-.24657938E-3,-.84E-6,0
