[
  {
    "name": "ONEWEB-0395",
    "noradId": "50475",
    "line1": "1 50475U 21132G   26156.34104087 -.00000325  00000+0 -95331-3 0  9992",
    "line2": "2 50475  87.8896  23.4253 0001902  90.9203 269.2143 13.11416107214169"
  },
  {
    "name": "ONEWEB-0396",
    "noradId": "50476",
    "line1": "1 50476U 21132H   26156.86162900 -.00000392  00000+0 -10272-2 0  9992",
    "line2": "2 50476  87.9168 337.7083 0001960  88.1820 271.9537 13.18684494220148"
  },
  {
    "name": "ONEWEB-0397",
    "noradId": "50477",
    "line1": "1 50477U 21132J   26156.49742470 -.00000114  00000+0 -32155-3 0  9995",
    "line2": "2 50477  87.9166 337.7810 0001929  84.7880 275.3472 13.18684483220074"
  },
  {
    "name": "ONEWEB-0398",
    "noradId": "50478",
    "line1": "1 50478U 21132K   26156.38512773  .00000590  00000+0  16293-2 0  9995",
    "line2": "2 50478  87.8903  23.4065 0001774  94.0979 266.0352 13.11418834214069"
  },
  {
    "name": "ONEWEB-0399",
    "noradId": "50479",
    "line1": "1 50479U 21132L   26156.37156325  .00000113  00000+0  28419-3 0  9997",
    "line2": "2 50479  87.8906  23.4200 0002292  79.2274 280.9112 13.11418902214057"
  },
  {
    "name": "ONEWEB-0400",
    "noradId": "50480",
    "line1": "1 50480U 21132M   26156.47550882 -.00000104  00000+0 -29666-3 0  9993",
    "line2": "2 50480  87.9166 337.7749 0001788  97.6141 262.5194 13.18684526220061"
  },
  {
    "name": "ONEWEB-0401",
    "noradId": "50481",
    "line1": "1 50481U 21132N   26156.52102967 -.00000091  00000+0 -26436-3 0  9994",
    "line2": "2 50481  87.9168 337.7631 0001758  82.4036 277.7296 13.18687014220073"
  },
  {
    "name": "ONEWEB-0402",
    "noradId": "50482",
    "line1": "1 50482U 21132P   26156.86333052  .00000044  00000+0  79241-4 0  9992",
    "line2": "2 50482  87.9168 337.6847 0001731  74.1307 286.0016 13.18688709220145"
  },
  {
    "name": "ONEWEB-0403",
    "noradId": "50483",
    "line1": "1 50483U 21132Q   26156.50922498 -.00000092  00000+0 -26648-3 0  9999",
    "line2": "2 50483  87.9165 337.7787 0002020  91.9434 268.1929 13.18687118220054"
  },
  {
    "name": "ONEWEB-0404",
    "noradId": "50484",
    "line1": "1 50484U 21132R   26156.35290678 -.00000503  00000+0 -14539-2 0  9993",
    "line2": "2 50484  87.8898  23.4227 0002111  86.4533 273.6836 13.11416893214149"
  },
  {
    "name": "ONEWEB-0405",
    "noradId": "50485",
    "line1": "1 50485U 21132S   26156.52273324  .00000005  00000+0 -19965-4 0  9998",
    "line2": "2 50485  87.9170 337.7606 0001757 105.4493 254.6834 13.18686215220450"
  },
  {
    "name": "ONEWEB-0406",
    "noradId": "50486",
    "line1": "1 50486U 21132T   26156.51428703  .00000032  00000+0  48131-4 0  9997",
    "line2": "2 50486  87.9159 337.7794 0002411  91.1095 269.0313 13.18684686220084"
  },
  {
    "name": "ONEWEB-0407",
    "noradId": "50487",
    "line1": "1 50487U 21132U   26156.50754847 -.00000028  00000+0 -10423-3 0  9997",
    "line2": "2 50487  87.9167 337.7723 0001583  88.8095 271.3218 13.18686513220023"
  },
  {
    "name": "ONEWEB-0409",
    "noradId": "50488",
    "line1": "1 50488U 21132V   26156.35120777 -.00000430  00000+0 -12499-2 0  9991",
    "line2": "2 50488  87.8908  23.4090 0002026  88.4631 271.6729 13.11417926214034"
  },
  {
    "name": "ONEWEB-0412",
    "noradId": "50489",
    "line1": "1 50489U 21132W   26156.49573401 -.00000061  00000+0 -18773-3 0  9995",
    "line2": "2 50489  87.9167 337.7837 0001822  81.7649 278.3690 13.18687498220118"
  },
  {
    "name": "ONEWEB-0413",
    "noradId": "50490",
    "line1": "1 50490U 21132X   26156.50078988 -.00000047  00000+0 -15280-3 0  9993",
    "line2": "2 50490  87.9156 337.7821 0001567  82.2750 277.8560 13.18680216220050"
  },
  {
    "name": "ONEWEB-0414",
    "noradId": "50491",
    "line1": "1 50491U 21132Y   26156.48562455  .00000045  00000+0  82549-4 0  9997",
    "line2": "2 50491  87.9167 337.7659 0001918  85.9780 274.1571 13.18684778220087"
  },
  {
    "name": "ONEWEB-0417",
    "noradId": "50492",
    "line1": "1 50492U 21132Z   26156.49405393  .00000048  00000+0  89777-4 0  9999",
    "line2": "2 50492  87.9160 337.7847 0002039  90.7909 269.3457 13.18684979220062"
  },
  {
    "name": "ONEWEB-0418",
    "noradId": "50493",
    "line1": "1 50493U 21132AA  26156.50404319 -.00000059  00000+0 -18311-3 0  9998",
    "line2": "2 50493  87.9167 337.7811 0002107  92.1023 268.0351 13.18685855220120"
  },
  {
    "name": "ONEWEB-0419",
    "noradId": "50494",
    "line1": "1 50494U 21132AB  26156.52245844  .00000051  00000+0  96512-4 0  9997",
    "line2": "2 50494  87.9166 337.7771 0001986  97.4071 262.7287 13.18665592220046"
  },
  {
    "name": "ONEWEB-0420",
    "noradId": "50495",
    "line1": "1 50495U 21132AC  26156.48731016  .00000000  00000+0 -32433-4 0  9991",
    "line2": "2 50495  87.9157 337.7882 0001619  91.9145 268.2172 13.18684807220037"
  },
  {
    "name": "ONEWEB-0421",
    "noradId": "50496",
    "line1": "1 50496U 21132AD  26156.85994352 -.00001075  00000+0 -27598-2 0  9995",
    "line2": "2 50496  87.9161 337.7113 0002052  80.1246 280.0118 13.18689930220128"
  },
  {
    "name": "ONEWEB-0424",
    "noradId": "50497",
    "line1": "1 50497U 21132AE  26156.51765999 -.00000062  00000+0 -18906-3 0  9991",
    "line2": "2 50497  87.9166 337.7769 0001937 100.1723 259.9628 13.18687487220109"
  },
  {
    "name": "ONEWEB-0426",
    "noradId": "50498",
    "line1": "1 50498U 21132AF  26156.47636547 -.00000062  00000+0 -19093-3 0  9991",
    "line2": "2 50498  87.9167 337.7761 0002444  83.2460 276.8950 13.18687980220043"
  },
  {
    "name": "ONEWEB-0427",
    "noradId": "50499",
    "line1": "1 50499U 21132AG  26156.51597692  .00006810  00000+0  17237-1 0  9995",
    "line2": "2 50499  87.9166 337.7568 0002328  97.1415 262.9982 13.18652212220077"
  },
  {
    "name": "ONEWEB-0429",
    "noradId": "50500",
    "line1": "1 50500U 21132AH  26156.50248774 -.00000059  00000+0 -18328-3 0  9996",
    "line2": "2 50500  87.9159 337.7852 0001690  90.4903 269.6423 13.18685056220040"
  },
  {
    "name": "ONEWEB-0430",
    "noradId": "50501",
    "line1": "1 50501U 21132AJ  26156.49068451 -.00000054  00000+0 -16990-3 0  9995",
    "line2": "2 50501  87.9158 337.7856 0001652  98.4127 261.7192 13.18685409220080"
  },
  {
    "name": "ONEWEB-0432",
    "noradId": "50502",
    "line1": "1 50502U 21132AK  26156.44764754  .00000009  00000+0 -10925-4 0  9992",
    "line2": "2 50502  87.9165 337.7664 0001821 111.3958 248.7369 13.18682886220033"
  },
  {
    "name": "ONEWEB-0440",
    "noradId": "50503",
    "line1": "1 50503U 21132AL  26156.51091255  .00000055  00000+0  10552-3 0  9995",
    "line2": "2 50503  87.9167 337.7766 0001744  79.9660 280.1669 13.18684821220036"
  },
  {
    "name": "ONEWEB-0450",
    "noradId": "50504",
    "line1": "1 50504U 21132AM  26156.50431720 -.00000084  00000+0 -24658-3 0  9996",
    "line2": "2 50504  87.9156 337.7847 0001630  91.9867 268.1452 13.18687294220068"
  }
]